{
    "links": {
        "self": "http://www.neowsapp.com/rest/v1/neo/54017035?api_key=iIulBulltgU6a56xZRHN4H3l9WmuAYTsLGpBGhQ2"
    },
    "id": "54017035",
    "neo_reference_id": "54017035",
    "name": "(2020 JD2)",
    "designation": "2020 JD2",
    "nasa_jpl_url": "http://ssd.jpl.nasa.gov/sbdb.cgi?sstr=54017035",
    "absolute_magnitude_h": 25.498,
    "estimated_diameter": {
        "kilometers": {
            "estimated_diameter_min": 0.0211326995,
            "estimated_diameter_max": 0.0472541525
        },
        "meters": {
            "estimated_diameter_min": 21.1326994537,
            "estimated_diameter_max": 47.2541525266
        },
        "miles": {
            "estimated_diameter_min": 0.0131312466,
            "estimated_diameter_max": 0.02936236
        },
        "feet": {
            "estimated_diameter_min": 69.3330056758,
            "estimated_diameter_max": 155.0333137755
        }
    },
    "is_potentially_hazardous_asteroid": false,
    "close_approach_data": [
        {
            "close_approach_date": "2020-05-19",
            "close_approach_date_full": "2020-May-19 13:34",
            "epoch_date_close_approach": 1589895240000,
            "relative_velocity": {
                "kilometers_per_second": "9.4993426829",
                "kilometers_per_hour": "34197.6336582645",
                "miles_per_hour": "21249.07964727"
            },
            "miss_distance": {
                "astronomical": "0.0255820685",
                "lunar": "9.9514246465",
                "kilometers": "3827022.957794095",
                "miles": "2378001.796564711"
            },
            "orbiting_body": "Earth"
        }
    ],
    "orbital_data": {
        "orbit_id": "4",
        "orbit_determination_date": "2020-08-22 06:34:00",
        "first_observation_date": "2020-05-15",
        "last_observation_date": "2020-05-19",
        "data_arc_in_days": 4,
        "observations_used": 65,
        "orbit_uncertainty": "8",
        "minimum_orbit_intersection": ".0131964",
        "jupiter_tisserand_invariant": "3.128",
        "epoch_osculation": "2458985.5",
        "eccentricity": ".6135612924940982",
        "semi_major_axis": "2.581716232984466",
        "inclination": "1.139686490067588",
        "ascending_node_longitude": "140.0593575787862",
        "orbital_period": "1515.169379869041",
        "perihelion_distance": ".9976750842215226",
        "perihelion_argument": "120.5390148002662",
        "aphelion_distance": "4.165757381747408",
        "perihelion_time": "2459006.296187495142",
        "mean_anomaly": "355.0588841104364",
        "mean_motion": ".2375971985594874",
        "equinox": "J2000",
        "orbit_class": {
            "orbit_class_type": "APO",
            "orbit_class_description": "Near-Earth asteroid orbits which cross the Earth’s orbit similar to that of 1862 Apollo",
            "orbit_class_range": "a (semi-major axis) > 1.0 AU; q (perihelion) < 1.017 AU"
        }
    },
    "is_sentry_object": false
}